NORAD_CAT_ID,OBJECT_NAME,OBJECT_TYPE,EPOCH,MEAN_MOTION,ECCENTRICITY,INCLINATION,RA_OF_ASC_NODE,ARG_OF_PERICENTER,MEAN_ANOMALY,BSTAR,MEAN_MOTION_DOT,MEAN_MOTION_DDOT,TLE_LINE0,TLE_LINE1,TLE_LINE2,SEMIMAJOR_AXIS,PERIOD,APOGEE,PERIGEE,DECAYED
52575.0,STARLINK-3920,PAYLOAD,2023-06-16 01:02:40,15.08850226,0.0001149,53.2172,277.7263,96.7831,263.3292,-9.6802e-05,-1.829e-05,0.0,0 STARLINK-3920,1 52575U 22051AR  23167.04352188 -.00001829  00000-0 -96802-4 0  9995,2 52575  53.2172 277.7263 0001149  96.7831 263.3292 15.08850226 61044,6917.849,95.437,540.509,538.919,0.0
52575.0,STARLINK-3920,PAYLOAD,2023-06-16 13:45:44,15.08851827,0.0001069,53.2166,275.347,90.7321,269.3793,0.00021841,3.191e-05,0.0,0 STARLINK-3920,1 52575U 22051AR  23167.57343150  .00003191  00000-0  21841-3 0  9994,2 52575  53.2166 275.3470 0001069  90.7321 269.3793 15.08851827 61051,6917.844,95.437,540.449,538.97,0.0
52575.0,STARLINK-3920,PAYLOAD,2023-06-16 16:56:29,15.08874645,0.0001328,53.2167,274.7521,102.633,257.4811,-1.008e-05,-4.49e-06,0.0,0 STARLINK-3920,1 52575U 22051AR  23167.70590049 -.00000449  00000-0 -10080-4 0  9999,2 52575  53.2167 274.7521 0001328 102.6330 257.4811 15.08874645 61077,6917.774,95.435,540.558,538.721,0.0
52575.0,STARLINK-3920,PAYLOAD,2023-06-16 21:42:40,15.08847764,0.0001414,53.2167,273.8607,88.2196,271.8958,0.00020863,3.035e-05,0.0,0 STARLINK-3920,1 52575U 22051AR  23167.90463363  .00003035  00000-0  20863-3 0  9990,2 52575  53.2167 273.8607 0001414  88.2196 271.8958 15.08847764 61172,6917.857,95.437,540.7,538.743,0.0
52575.0,STARLINK-3920,PAYLOAD,2023-06-17 13:36:33,15.08818067,9.87e-05,53.2162,270.8885,92.8609,267.2496,-0.00014981,-2.67e-05,0.0,0 STARLINK-3920,1 52575U 22051AR  23168.56705950 -.00002670  00000-0 -14981-3 0  9994,2 52575  53.2162 270.8885 0000987  92.8609 267.2496 15.08818067 61200,6917.947,95.439,540.495,539.13,0.0
52575.0,STARLINK-3920,PAYLOAD,2023-06-18 07:05:47,15.08836757,0.0001073,53.2169,267.6154,98.5085,261.6028,7.6335e-07,-2.76e-06,0.0,0 STARLINK-3920,1 52575U 22051AR  23169.29569440 -.00000276  00000-0  76335-6 0  9990,2 52575  53.2169 267.6154 0001073  98.5085 261.6028 15.08836757 61382,6917.89,95.438,540.498,539.013,0.0
52575.0,STARLINK-3920,PAYLOAD,2023-06-18 13:27:20,15.08844252,0.0001062,53.216,266.4276,99.449,260.6622,0.00025263,3.736e-05,0.0,0 STARLINK-3920,1 52575U 22051AR  23169.56065249  .00003736  00000-0  25263-3 0  9992,2 52575  53.2160 266.4276 0001062  99.4490 260.6622 15.08844252 61358,6917.867,95.437,540.467,538.998,0.0
52575.0,STARLINK-3920,PAYLOAD,2023-06-18 16:38:06,15.08847675,0.0001041,53.2164,265.8326,97.315,262.796,0.00029496,4.411e-05,0.0,0 STARLINK-3920,1 52575U 22051AR  23169.69313147  .00004411  00000-0  29496-3 0  9992,2 52575  53.2164 265.8326 0001041  97.3150 262.7960 15.08847675 61448,6917.857,95.437,540.442,539.002,0.0
52575.0,STARLINK-3920,PAYLOAD,2023-06-19 05:21:11,15.08843781,0.000108,53.216,263.4544,100.9697,259.1417,0.0003473,5.244e-05,0.0,0 STARLINK-3920,1 52575U 22051AR  23170.22305528  .00005244  00000-0  34730-3 0  9999,2 52575  53.2160 263.4544 0001080 100.9697 259.1417 15.08843781 61520,6917.869,95.437,540.481,538.987,0.0
52575.0,STARLINK-3920,PAYLOAD,2023-06-19 13:18:07,15.08850422,0.0001075,53.2159,261.9678,100.6747,259.4366,0.00037624,5.707e-05,0.0,0 STARLINK-3920,1 52575U 22051AR  23170.55425227  .00005707  00000-0  37624-3 0  9993,2 52575  53.2159 261.9678 0001075 100.6747 259.4366 15.08850422 61500,6917.849,95.437,540.457,538.97,0.0
52575.0,STARLINK-3920,PAYLOAD,2023-06-20 06:47:21,15.08838821,0.0001069,53.2157,258.6978,102.5068,257.6044,-7.421e-05,-1.469e-05,0.0,0 STARLINK-3920,1 52575U 22051AR  23171.28289338 -.00001469  00000-0 -74210-4 0  9991,2 52575  53.2157 258.6978 0001069 102.5068 257.6044 15.08838821 61685,6917.884,95.438,540.489,539.009,0.0
52575.0,STARLINK-3920,PAYLOAD,2023-06-21 11:24:18,15.08845696,0.0001143,53.2163,253.3453,90.3514,269.7609,0.00011049,1.471e-05,0.0,0 STARLINK-3920,1 52575U 22051AR  23172.47521158  .00001471  00000-0  11049-3 0  9993,2 52575  53.2163 253.3453 0001143  90.3514 269.7609 15.08845696 61864,6917.863,95.437,540.519,538.937,0.0
52575.0,STARLINK-3920,PAYLOAD,2023-06-21 12:59:41,15.08846995,0.0001093,53.2161,253.0479,89.5707,270.5411,0.00013458,1.855e-05,0.0,0 STARLINK-3920,1 52575U 22051AR  23172.54145069  .00001855  00000-0  13458-3 0  9996,2 52575  53.2161 253.0479 0001093  89.5707 270.5411 15.08846995 61803,6917.859,95.437,540.48,538.968,0.0
52575.0,STARLINK-3920,PAYLOAD,2023-06-21 22:32:00,15.08841919,0.0001117,53.2155,251.2631,77.1001,283.0116,3.1243e-05,2.09e-06,0.0,0 STARLINK-3920,1 52575U 22051AR  23172.93889369  .00000209  00000-0  31243-4 0  9992,2 52575  53.2155 251.2631 0001117  77.1001 283.0116 15.08841919 61939,6917.875,95.437,540.512,538.967,0.0
52575.0,STARLINK-3920,PAYLOAD,2023-06-22 09:39:42,15.08834763,0.0001174,53.216,249.1816,80.1111,280.0014,5.3443e-05,5.63e-06,0.0,0 STARLINK-3920,1 52575U 22051AR  23173.40257915  .00000563  00000-0  53443-4 0  9990,2 52575  53.2160 249.1816 0001174  80.1111 280.0014 15.08834763 62007,6917.896,95.438,540.574,538.949,0.0
52575.0,STARLINK-3920,PAYLOAD,2023-06-23 11:05:52,15.08842633,0.0001021,53.2147,244.4231,77.9039,282.2068,0.0001387,1.92e-05,0.0,0 STARLINK-3920,1 52575U 22051AR  23174.46241664  .00001920  00000-0  13870-3 0  9998,2 52575  53.2147 244.4231 0001021  77.9039 282.2068 15.08842633 62160,6917.872,95.437,540.444,539.031,0.0
52575.0,STARLINK-3920,PAYLOAD,2023-06-24 04:35:07,15.08837742,0.0001036,53.2149,241.1519,79.4667,280.6442,0.00029766,4.452e-05,0.0,0 STARLINK-3920,1 52575U 22051AR  23175.19105991  .00004452  00000-0  29766-3 0  9995,2 52575  53.2149 241.1519 0001036  79.4667 280.6442 15.08837742 62270,6917.887,95.438,540.469,539.036,0.0
52575.0,STARLINK-3920,PAYLOAD,2023-06-24 14:07:25,15.08849003,0.0001092,53.2151,239.3673,82.8397,277.272,0.00023728,3.491e-05,0.0,0 STARLINK-3920,1 52575U 22051AR  23175.58849347  .00003491  00000-0  23728-3 0  9992,2 52575  53.2151 239.3673 0001092  82.8397 277.2720 15.08849003 62334,6917.853,95.437,540.473,538.962,0.0
52575.0,STARLINK-3920,PAYLOAD,2023-06-25 09:12:03,15.08836703,0.00011,53.2151,235.7993,83.2293,276.8824,0.00015106,2.117e-05,0.0,0 STARLINK-3920,1 52575U 22051AR  23176.38337923  .00002117  00000-0  15106-3 0  9998,2 52575  53.2151 235.7993 0001100  83.2293 276.8824 15.08836703 62455,6917.89,95.438,540.516,538.994,0.0
52575.0,STARLINK-3920,PAYLOAD,2023-06-26 13:49:00,15.0884057,0.0001031,53.2159,230.4469,83.0497,277.0612,2.0786e-05,4.3e-07,0.0,0 STARLINK-3920,1 52575U 22051AR  23177.57569827  .00000043  00000-0  20786-4 0  9997,2 52575  53.2159 230.4469 0001031  83.0497 277.0612 15.08840570 62635,6917.879,95.438,540.457,539.03,0.0
52575.0,STARLINK-3920,PAYLOAD,2023-06-27 02:32:05,15.08827429,7.15e-05,53.2158,228.0683,41.8251,318.2795,0.0001323,1.818e-05,0.0,0 STARLINK-3920,1 52575U 22051AR  23178.10562353  .00001818  00000-0  13230-3 0  9990,2 52575  53.2158 228.0683 0000715  41.8251 318.2795 15.08827429 62710,6917.919,95.438,540.278,539.289,0.0
52575.0,STARLINK-3920,PAYLOAD,2023-06-27 20:01:20,15.08841241,0.0001078,53.2161,224.7973,91.019,269.0926,-6.7968e-06,-3.96e-06,0.0,0 STARLINK-3920,1 52575U 22051AR  23178.83426143 -.00000396  00000-0 -67968-5 0  9997,2 52575  53.2161 224.7973 0001078  91.0190 269.0926 15.08841241 62820,6917.877,95.437,540.487,538.996,0.0
52575.0,STARLINK-3920,PAYLOAD,2023-06-29 03:49:03,15.08836689,0.0001064,53.2159,218.8496,92.4569,267.6545,9.0939e-05,1.16e-05,0.0,0 STARLINK-3920,1 52575U 22051AR  23180.15906488  .00001160  00000-0  90939-4 0  9991,2 52575  53.2159 218.8496 0001064  92.4569 267.6545 15.08836689 63025,6917.891,95.438,540.492,539.019,0.0
52575.0,STARLINK-3920,PAYLOAD,2023-07-01 01:55:14,15.08833357,0.0001026,53.2153,210.2249,88.8621,271.2489,2.0593e-05,4e-07,0.0,0 STARLINK-3920,1 52575U 22051AR  23182.08002728  .00000040  00000-0  20593-4 0  9994,2 52575  53.2153 210.2249 0001026  88.8621 271.2489 15.08833357 63316,6917.901,95.438,540.475,539.056,0.0
52575.0,STARLINK-3920,PAYLOAD,2023-07-02 08:07:34,15.08838152,0.0001026,53.2152,204.5752,79.2249,280.8859,-1.7263e-05,-5.62e-06,0.0,0 STARLINK-3920,1 52575U 22051AR  23183.33858806 -.00000562  00000-0 -17263-4 0  9990,2 52575  53.2152 204.5752 0001026  79.2249 280.8859 15.08838152 63506,6917.886,95.438,540.461,539.041,0.0
52575.0,STARLINK-3920,PAYLOAD,2023-07-03 17:30:39,15.08836606,0.000106,53.2157,198.3306,74.0997,286.0112,7.9243e-05,9.73e-06,0.0,0 STARLINK-3920,1 52575U 22051AR  23184.72962942  .00000973  00000-0  79243-4 0  9991,2 52575  53.2157 198.3306 0001060  74.0997 286.0112 15.08836606 63712,6917.891,95.438,540.489,539.022,0.0
52575.0,STARLINK-3920,PAYLOAD,2023-07-05 09:15:18,15.088404,0.0001089,53.2157,190.8964,71.541,288.57,2.3468e-05,8.6e-07,0.0,0 STARLINK-3920,1 52575U 22051AR  23186.38562929  .00000086  00000-0  23468-4 0  9999,2 52575  53.2157 190.8964 0001089  71.5410 288.5700 15.08840400 63966,6917.879,95.438,540.498,538.991,0.0
52575.0,STARLINK-3920,PAYLOAD,2023-07-06 17:03:01,15.08840868,0.0001092,53.2158,184.9494,76.8683,283.2431,3.7684e-05,3.12e-06,0.0,0 STARLINK-3920,1 52575U 22051AR  23187.71042896  .00000312  00000-0  37684-4 0  9990,2 52575  53.2158 184.9494 0001092  76.8683 283.2431 15.08840868 64167,6917.878,95.437,540.498,538.987,0.0
52575.0,STARLINK-3920,PAYLOAD,2023-07-08 08:47:39,15.08842303,0.0001173,53.2158,177.5146,77.3505,282.7619,7.0973e-05,8.42e-06,0.0,0 STARLINK-3920,1 52575U 22051AR  23189.36642708  .00000842  00000-0  70973-4 0  9997,2 52575  53.2158 177.5146 0001173  77.3505 282.7619 15.08842303 64414,6917.873,95.437,540.55,538.927,0.0
52575.0,STARLINK-3920,PAYLOAD,2023-07-09 05:27:40,15.08838464,0.0001178,53.2157,173.6481,81.7468,278.3658,-7.3116e-06,-4.04e-06,0.0,0 STARLINK-3920,1 52575U 22051AR  23190.22755194 -.00000404  00000-0 -73116-5 0  9997,2 52575  53.2157 173.6481 0001178  81.7468 278.3658 15.08838464 64545,6917.885,95.438,540.565,538.935,0.0
